{
  "type": "FeatureCollection",
  "features": [
    {
      "type": "Feature",
      "properties": {
        "norad_id": 65731,
        "name": "1998-067XK",
        "group": "stations",
        "lat": 7.779098677362344,
        "lon": 139.2531542597615,
        "alt_km": 371.9794191817318,
        "timestamp": "2025-12-13T13:34:33.887343+00:00",
        "meta_object_name": "1998-067XK",
        "meta_object_id": "1998-067XK",
        "meta_epoch": "2025-12-12T16:05:23.204544",
        "meta_mean_motion": 15.6571467,
        "meta_eccentricity": 0.00050644,
        "meta_inclination": 51.6278,
        "meta_ra_of_asc_node": 137.5837,
        "meta_arg_of_pericenter": 245.5943,
        "meta_mean_anomaly": 114.4524,
        "meta_ephemeris_type": 0,
        "meta_classification_type": "U",
        "meta_norad_cat_id": 65731,
        "meta_element_set_no": 999,
        "meta_rev_at_epoch": 1313,
        "meta_bstar": 0.0011638713,
        "meta_mean_motion_dot": 0.00121277,
        "meta_mean_motion_ddot": 0,
        "tle_line1": "1 65731U 98067XK  25346.67040746  .00121277  00000+0  11639-2 0  9997",
        "tle_line2": "2 65731  51.6278 137.5837 0005064 245.5943 114.4524 15.65714670 13135"
      },
      "geometry": {
        "type": "Point",
        "coordinates": [
          139.2531542597615,
          7.779098677362344
        ]
      }
    },
    {
      "type": "Feature",
      "properties": {
        "norad_id": 65732,
        "name": "RSP-03",
        "group": "stations",
        "lat": -7.018144263807826,
        "lon": 126.72018332176063,
        "alt_km": 364.2894076482653,
        "timestamp": "2025-12-13T13:34:33.887353+00:00",
        "meta_object_name": "RSP-03",
        "meta_object_id": "1998-067XL",
        "meta_epoch": "2025-12-12T19:16:04.645920",
        "meta_mean_motion": 15.68628297,
        "meta_eccentricity": 0.00057622,
        "meta_inclination": 51.6253,
        "meta_ra_of_asc_node": 136.2083,
        "meta_arg_of_pericenter": 249.7501,
        "meta_mean_anomaly": 110.2876,
        "meta_ephemeris_type": 0,
        "meta_classification_type": "U",
        "meta_norad_cat_id": 65732,
        "meta_element_set_no": 999,
        "meta_rev_at_epoch": 1317,
        "meta_bstar": 0.0013717805,
        "meta_mean_motion_dot": 0.00161855,
        "meta_mean_motion_ddot": 0,
        "tle_line1": "1 65732U 98067XL  25346.80283155  .00161855  00000+0  13718-2 0  9992",
        "tle_line2": "2 65732  51.6253 136.2083 0005762 249.7501 110.2876 15.68628297 13179"
      },
      "geometry": {
        "type": "Point",
        "coordinates": [
          126.72018332176063,
          -7.018144263807826
        ]
      }
    },
    {
      "type": "Feature",
      "properties": {
        "norad_id": 65733,
        "name": "GHS-01",
        "group": "stations",
        "lat": -48.465744995688404,
        "lon": 67.49806492639603,
        "alt_km": 343.69630015215444,
        "timestamp": "2025-12-13T13:34:33.887365+00:00",
        "meta_object_name": "GHS-01",
        "meta_object_id": "1998-067XM",
        "meta_epoch": "2025-12-12T16:33:54.337536",
        "meta_mean_motion": 15.74787819,
        "meta_eccentricity": 0.00071608,
        "meta_inclination": 51.6272,
        "meta_ra_of_asc_node": 135.4559,
        "meta_arg_of_pericenter": 280.4692,
        "meta_mean_anomaly": 79.55,
        "meta_ephemeris_type": 0,
        "meta_classification_type": "U",
        "meta_norad_cat_id": 65733,
        "meta_element_set_no": 999,
        "meta_rev_at_epoch": 1317,
        "meta_bstar": 0.0017046622,
        "meta_mean_motion_dot": 0.00264493,
        "meta_mean_motion_ddot": 0,
        "tle_line1": "1 65733U 98067XM  25346.69021224  .00264493  00000+0  17047-2 0  9998",
        "tle_line2": "2 65733  51.6272 135.4559 0007160 280.4692  79.5500 15.74787819 13171"
      },
      "geometry": {
        "type": "Point",
        "coordinates": [
          67.49806492639603,
          -48.465744995688404
        ]
      }
    },
    {
      "type": "Feature",
      "properties": {
        "norad_id": 65941,
        "name": "YOTSUBA-KULOVER",
        "group": "stations",
        "lat": 46.492811932454636,
        "lon": -100.76622705475853,
        "alt_km": 383.20177971142584,
        "timestamp": "2025-12-13T13:34:33.887374+00:00",
        "meta_object_name": "YOTSUBA-KULOVER",
        "meta_object_id": "1998-067XN",
        "meta_epoch": "2025-12-12T17:06:14.759712",
        "meta_mean_motion": 15.59446006,
        "meta_eccentricity": 0.00014368,
        "meta_inclination": 51.6283,
        "meta_ra_of_asc_node": 140.1144,
        "meta_arg_of_pericenter": 251.0528,
        "meta_mean_anomaly": 109.031,
        "meta_ephemeris_type": 0,
        "meta_classification_type": "U",
        "meta_norad_cat_id": 65941,
        "meta_element_set_no": 999,
        "meta_rev_at_epoch": 985,
        "meta_bstar": 0.0010887286,
        "meta_mean_motion_dot": 0.00088324,
        "meta_mean_motion_ddot": 0,
        "tle_line1": "1 65941U 98067XN  25346.71267083  .00088324  00000+0  10887-2 0  9999",
        "tle_line2": "2 65941  51.6283 140.1144 0001436 251.0528 109.0310 15.59446006  9850"
      },
      "geometry": {
        "type": "Point",
        "coordinates": [
          -100.76622705475853,
          46.492811932454636
        ]
      }
    },
    {
      "type": "Feature",
      "properties": {
        "norad_id": 65942,
        "name": "BOTAN",
        "group": "stations",
        "lat": 51.59490562066353,
        "lon": -133.09679043592936,
        "alt_km": 373.39029570331877,
        "timestamp": "2025-12-13T13:34:33.887384+00:00",
        "meta_object_name": "BOTAN",
        "meta_object_id": "1998-067XP",
        "meta_epoch": "2025-12-12T20:18:31.406976",
        "meta_mean_motion": 15.62906067,
        "meta_eccentricity": 0.00031064,
        "meta_inclination": 51.6286,
        "meta_ra_of_asc_node": 138.7562,
        "meta_arg_of_pericenter": 238.0921,
        "meta_mean_anomaly": 121.9771,
        "meta_ephemeris_type": 0,
        "meta_classification_type": "U",
        "meta_norad_cat_id": 65942,
        "meta_element_set_no": 999,
        "meta_rev_at_epoch": 988,
        "meta_bstar": 0.0014970071,
        "meta_mean_motion_dot": 0.00139962,
        "meta_mean_motion_ddot": 0,
        "tle_line1": "1 65942U 98067XP  25346.84619684  .00139962  00000+0  14970-2 0  9994",
        "tle_line2": "2 65942  51.6286 138.7562 0003106 238.0921 121.9771 15.62906067  9888"
      },
      "geometry": {
        "type": "Point",
        "coordinates": [
          -133.09679043592936,
          51.59490562066353
        ]
      }
    },
    {
      "type": "Feature",
      "properties": {
        "norad_id": 65943,
        "name": "E-KAGAKU-1",
        "group": "stations",
        "lat": 46.317786755047514,
        "lon": -100.24695264693035,
        "alt_km": 382.36362018268665,
        "timestamp": "2025-12-13T13:34:33.887393+00:00",
        "meta_object_name": "E-KAGAKU-1",
        "meta_object_id": "1998-067XQ",
        "meta_epoch": "2025-12-10T06:39:08.237952",
        "meta_mean_motion": 15.5900432,
        "meta_eccentricity": 0.00052507,
        "meta_inclination": 51.6298,
        "meta_ra_of_asc_node": 152.3458,
        "meta_arg_of_pericenter": 191.2269,
        "meta_mean_anomaly": 168.8608,
        "meta_ephemeris_type": 0,
        "meta_classification_type": "U",
        "meta_norad_cat_id": 65943,
        "meta_element_set_no": 999,
        "meta_rev_at_epoch": 947,
        "meta_bstar": 0.0012588803,
        "meta_mean_motion_dot": 0.00100705,
        "meta_mean_motion_ddot": 0,
        "tle_line1": "1 65943U 98067XQ  25344.27717868  .00100705  00000+0  12589-2 0  9990",
        "tle_line2": "2 65943  51.6298 152.3458 0005250 191.2269 168.8608 15.59004320  9476"
      },
      "geometry": {
        "type": "Point",
        "coordinates": [
          -100.24695264693035,
          46.317786755047514
        ]
      }
    },
    {
      "type": "Feature",
      "properties": {
        "norad_id": 66052,
        "name": "HRC MONOBLOCK CAMERA",
        "group": "stations",
        "lat": 50.537079779562035,
        "lon": -148.36536051252727,
        "alt_km": 398.151722566372,
        "timestamp": "2025-12-13T13:34:33.887403+00:00",
        "meta_object_name": "HRC MONOBLOCK CAMERA",
        "meta_object_id": "1998-067XR",
        "meta_epoch": "2025-12-12T23:20:39.577920",
        "meta_mean_motion": 15.54154982,
        "meta_eccentricity": 0.00033119,
        "meta_inclination": 51.6292,
        "meta_ra_of_asc_node": 140.346,
        "meta_arg_of_pericenter": 185.3719,
        "meta_mean_anomaly": 174.7237,
        "meta_ephemeris_type": 0,
        "meta_classification_type": "U",
        "meta_norad_cat_id": 66052,
        "meta_element_set_no": 999,
        "meta_rev_at_epoch": 887,
        "meta_bstar": 0.00076587258,
        "meta_mean_motion_dot": 0.00050598,
        "meta_mean_motion_ddot": 0,
        "tle_line1": "1 66052U 98067XR  25346.97268030  .00050598  00000+0  76587-3 0  9996",
        "tle_line2": "2 66052  51.6292 140.3460 0003311 185.3719 174.7237 15.54154982  8874"
      },
      "geometry": {
        "type": "Point",
        "coordinates": [
          -148.36536051252727,
          50.537079779562035
        ]
      }
    }
  ]
}